{
  "norad_id": 53998,
  "name": "STARLINK-5128",
  "history": [
    {
      "epoch": "2026-03-28T19:37:58.005408Z",
      "apogee_km": 540.7063273242356,
      "perigee_km": 538.890507635856,
      "latitude_deg": -1.5873701112038006e-05,
      "longitude_deg": 7.285573507436284,
      "height_km": 540.6395547408889,
      "semi_major_axis_km": 6917.9354174800455,
      "eccentricity": 0.00013124,
      "inclination_deg": 53.2149,
      "raan_deg": 128.0103,
      "arg_perigee_deg": 86.5669,
      "mean_anomaly_deg": 273.5473,
      "mean_motion_rev_day": 15.08821997
    },
    {
      "epoch": "2026-03-29T01:59:31.019424Z",
      "apogee_km": 540.5414704327841,
      "perigee_km": 539.0748660571162,
      "latitude_deg": 1.190589566902654e-05,
      "longitude_deg": -89.55222611990546,
      "height_km": 540.5028905696662,
      "semi_major_axis_km": 6917.94516824495,
      "eccentricity": 0.000106,
      "inclination_deg": 53.2158,
      "raan_deg": 126.8212,
      "arg_perigee_deg": 74.0694,
      "mean_anomaly_deg": 286.0415,
      "mean_motion_rev_day": 15.08818807
    },
    {
      "epoch": "2026-03-30T01:50:18.192480Z",
      "apogee_km": 540.8170894062723,
      "perigee_km": 538.6410054623911,
      "latitude_deg": 6.978430732518075e-05,
      "longitude_deg": -92.68737529463611,
      "height_km": 540.6772816532422,
      "semi_major_axis_km": 6917.866047434331,
      "eccentricity": 0.00015728,
      "inclination_deg": 53.2152,
      "raan_deg": 122.3619,
      "arg_perigee_deg": 92.7956,
      "mean_anomaly_deg": 267.3217,
      "mean_motion_rev_day": 15.08844692
    },
    {
      "epoch": "2026-03-30T11:22:36.765696Z",
      "apogee_km": 540.8067538476653,
      "perigee_km": 538.6101995519039,
      "latitude_deg": 1.0136650161598795e-05,
      "longitude_deg": 122.05946044195282,
      "height_km": 540.6515433517914,
      "semi_major_axis_km": 6917.845476699785,
      "eccentricity": 0.00015876,
      "inclination_deg": 53.2153,
      "raan_deg": 120.5779,
      "arg_perigee_deg": 92.4996,
      "mean_anomaly_deg": 267.6178,
      "mean_motion_rev_day": 15.08851422
    },
    {
      "epoch": "2026-03-30T19:19:32.197728Z",
      "apogee_km": 540.801418652808,
      "perigee_km": 538.5954592880289,
      "latitude_deg": -5.337902860848028e-05,
      "longitude_deg": 1.0150040079760458,
      "height_km": 540.6399221870864,
      "semi_major_axis_km": 6917.835438970418,
      "eccentricity": 0.00015944,
      "inclination_deg": 53.215,
      "raan_deg": 119.0909,
      "arg_perigee_deg": 92.4082,
      "mean_anomaly_deg": 267.7092,
      "mean_motion_rev_day": 15.08854706
    },
    {
      "epoch": "2026-03-31T11:13:22.867392Z",
      "apogee_km": 540.7925782194534,
      "perigee_km": 538.5650415286736,
      "latitude_deg": 3.9890080306785696e-05,
      "longitude_deg": 118.92706728606785,
      "height_km": 540.6115813159116,
      "semi_major_axis_km": 6917.815809874063,
      "eccentricity": 0.000161,
      "inclination_deg": 53.2149,
      "raan_deg": 116.1169,
      "arg_perigee_deg": 91.9387,
      "mean_anomaly_deg": 268.179,
      "mean_motion_rev_day": 15.08861128
    },
    {
      "epoch": "2026-04-01T07:53:23.681184Z",
      "apogee_km": 540.7997348997524,
      "perigee_km": 538.6524301989284,
      "latitude_deg": 1.4215955032449037e-05,
      "longitude_deg": 164.2087994230338,
      "height_km": 540.66372694133,
      "semi_major_axis_km": 6917.86308254934,
      "eccentricity": 0.0001552,
      "inclination_deg": 53.2152,
      "raan_deg": 112.2508,
      "arg_perigee_deg": 92.2654,
      "mean_anomaly_deg": 267.8516,
      "mean_motion_rev_day": 15.08845662
    },
    {
      "epoch": "2026-04-02T10:54:56.415168Z",
      "apogee_km": 540.8263952467569,
      "perigee_km": 538.5940059551231,
      "latitude_deg": 1.3936061913737976e-05,
      "longitude_deg": 112.65720025877731,
      "height_km": 540.5584590358227,
      "semi_major_axis_km": 6917.84720060094,
      "eccentricity": 0.00016135,
      "inclination_deg": 53.2153,
      "raan_deg": 107.1955,
      "arg_perigee_deg": 87.5932,
      "mean_anomaly_deg": 272.5245,
      "mean_motion_rev_day": 15.08850858
    },
    {
      "epoch": "2026-04-03T17:07:16.666176Z",
      "apogee_km": 540.7938326117419,
      "perigee_km": 538.7115478149872,
      "latitude_deg": 3.580620834229624e-05,
      "longitude_deg": 12.681636697110545,
      "height_km": 540.5372808148991,
      "semi_major_axis_km": 6917.889690213365,
      "eccentricity": 0.0001505,
      "inclination_deg": 53.2152,
      "raan_deg": 101.5448,
      "arg_perigee_deg": 83.8972,
      "mean_anomaly_deg": 276.2192,
      "mean_motion_rev_day": 15.08836957
    },
    {
      "epoch": "2026-04-04T05:50:22.208640Z",
      "apogee_km": 540.8684193280278,
      "perigee_km": 538.6634069534939,
      "latitude_deg": -1.8178865986823552e-05,
      "longitude_deg": 179.0079845318863,
      "height_km": 540.5807049453534,
      "semi_major_axis_km": 6917.902913140761,
      "eccentricity": 0.00015937,
      "inclination_deg": 53.2159,
      "raan_deg": 99.1666,
      "arg_perigee_deg": 85.8162,
      "mean_anomaly_deg": 274.3012,
      "mean_motion_rev_day": 15.08832631
    }
  ]
}